NORAD_CAT_ID,OBJECT_NAME,OBJECT_TYPE,EPOCH,MEAN_MOTION,ECCENTRICITY,INCLINATION,RA_OF_ASC_NODE,ARG_OF_PERICENTER,MEAN_ANOMALY,BSTAR,MEAN_MOTION_DOT,MEAN_MOTION_DDOT,TLE_LINE0,TLE_LINE1,TLE_LINE2,SEMIMAJOR_AXIS,PERIOD,APOGEE,PERIGEE,DECAYED
53181.0,STARLINK-4273,PAYLOAD,2024-02-09 17:09:55,15.08833294,0.0001745,53.2183,291.0805,114.9014,245.2159,5.9644e-05,6.61e-06,0.0,0 STARLINK-4273,1 53181U 22083BB  24040.71522714  .00000661  00000-0  59644-4 0  9997,2 53181  53.2183 291.0805 0001745 114.9014 245.2159 15.08833294 87976,6917.901,95.438,540.973,538.559,0.0
53181.0,STARLINK-4273,PAYLOAD,2024-02-10 02:42:14,15.08836626,0.0001403,53.2176,289.2969,106.3518,253.7628,6.3317e-05,7.2e-06,0.0,0 STARLINK-4273,1 53181U 22083BB  24041.11266637  .00000720  00000-0  63317-4 0  9999,2 53181  53.2176 289.2969 0001403 106.3518 253.7628 15.08836626 87396,6917.891,95.438,540.726,538.785,0.0
53181.0,STARLINK-4273,PAYLOAD,2024-02-10 20:11:28,15.08843829,0.0001487,53.2171,286.026,116.7776,243.3368,2.2627e-05,7.2e-07,0.0,0 STARLINK-4273,1 53181U 22083BB  24041.84130541  .00000072  00000-0  22627-4 0  9992,2 53181  53.2171 286.0260 0001487 116.7776 243.3368 15.08843829 88146,6917.869,95.437,540.762,538.705,0.0
53181.0,STARLINK-4273,PAYLOAD,2024-02-10 21:46:51,15.08843381,0.0001397,53.2171,285.7284,110.6778,249.4364,3.2346e-05,2.27e-06,0.0,0 STARLINK-4273,1 53181U 22083BB  24041.90754561  .00000227  00000-0  32346-4 0  9994,2 53181  53.2171 285.7284 0001397 110.6778 249.4364 15.08843381 87519,6917.87,95.437,540.701,538.769,0.0
53181.0,STARLINK-4273,PAYLOAD,2024-02-11 02:33:01,15.08846508,0.0001403,53.2178,284.8386,108.361,251.7535,6.757e-05,7.88e-06,0.0,0 STARLINK-4273,1 53181U 22083BB  24042.10626329  .00000788  00000-0  67570-4 0  9996,2 53181  53.2178 284.8386 0001403 108.3610 251.7535 15.08846508 87549,6917.86,95.437,540.696,538.755,0.0
53181.0,STARLINK-4273,PAYLOAD,2024-02-11 21:37:39,15.08841535,0.000122,53.218,281.2702,96.0942,264.0189,0.00011156,1.488e-05,0.0,0 STARLINK-4273,1 53181U 22083BB  24042.90114612  .00001488  00000-0  11156-3 0  9997,2 53181  53.2180 281.2702 0001220  96.0942 264.0189 15.08841535 87663,6917.876,95.437,540.585,538.897,0.0
53181.0,STARLINK-4273,PAYLOAD,2024-02-12 02:23:48,15.08847136,0.000125,53.2179,280.3782,96.468,263.6455,0.00014574,2.033e-05,0.0,0 STARLINK-4273,1 53181U 22083BB  24043.09986163  .00002033  00000-0  14574-3 0  9990,2 53181  53.2179 280.3782 0001250  96.4680 263.6455 15.08847136 88334,6917.859,95.437,540.588,538.859,0.0
53181.0,STARLINK-4273,PAYLOAD,2024-02-12 19:53:02,15.08844458,0.0001435,53.2167,277.1061,67.344,292.7704,4.7122e-05,4.62e-06,0.0,0 STARLINK-4273,1 53181U 22083BB  24043.82850420  .00000462  00000-0  47122-4 0  9997,2 53181  53.2167 277.1061 0001435  67.3440 292.7704 15.08844458 88447,6917.867,95.437,540.724,538.739,0.0
53181.0,STARLINK-4273,PAYLOAD,2024-02-12 21:28:25,15.08847479,0.0001519,53.217,276.8109,76.295,283.8211,7.719e-05,9.41e-06,0.0,0 STARLINK-4273,1 53181U 22083BB  24043.89474314  .00000941  00000-0  77190-4 0  9998,2 53181  53.2170 276.8109 0001519  76.2950 283.8211 15.08847479 87818,6917.858,95.437,540.773,538.672,0.0
53181.0,STARLINK-4273,PAYLOAD,2024-02-13 00:39:11,15.08860099,0.0001453,53.2167,276.216,79.9357,280.1799,0.00028886,4.315e-05,0.0,0 STARLINK-4273,1 53181U 22083BB  24044.02721504  .00004315  00000-0  28886-3 0  9996,2 53181  53.2167 276.2160 0001453  79.9357 280.1799 15.08860099 88470,6917.819,95.436,540.689,538.679,0.0
53181.0,STARLINK-4273,PAYLOAD,2024-02-13 08:36:07,15.08842183,0.0001313,53.2176,274.7282,86.6789,273.4353,1.4828e-05,-5.2e-07,0.0,0 STARLINK-4273,1 53181U 22083BB  24044.35842166 -.00000052  00000-0  14828-4 0  9997,2 53181  53.2176 274.7282 0001313  86.6789 273.4353 15.08842183 88528,6917.874,95.437,540.647,538.83,0.0
53181.0,STARLINK-4273,PAYLOAD,2024-02-13 19:43:50,15.08835326,0.0001519,53.2171,272.6454,88.3852,271.7314,-9.4573e-05,-1.793e-05,0.0,0 STARLINK-4273,1 53181U 22083BB  24044.82210741 -.00001793  00000-0 -94573-4 0  9996,2 53181  53.2171 272.6454 0001519  88.3852 271.7314 15.08835326 88595,6917.895,95.438,540.811,538.709,0.0
53181.0,STARLINK-4273,PAYLOAD,2024-02-13 21:19:13,15.08837747,0.0001427,53.2158,272.3514,103.0841,257.031,-0.00010044,-1.886e-05,0.0,0 STARLINK-4273,1 53181U 22083BB  24044.88834502 -.00001886  00000-0 -10044-3 0  9992,2 53181  53.2158 272.3514 0001427 103.0841 257.0310 15.08837747 87967,6917.887,95.438,540.739,538.765,0.0
53181.0,STARLINK-4273,PAYLOAD,2024-02-14 14:48:27,15.088389,0.0001682,53.2162,269.0783,125.7611,234.3537,3.8262e-05,3.21e-06,0.0,0 STARLINK-4273,1 53181U 22083BB  24045.61698786  .00000321  00000-0  38262-4 0  9990,2 53181  53.2162 269.0783 0001682 125.7611 234.3537 15.08838900 88076,6917.884,95.438,540.912,538.585,0.0
53181.0,STARLINK-4273,PAYLOAD,2024-02-14 21:09:59,15.08851196,0.0001351,53.2152,267.8912,102.2508,257.8636,-3.7849e-05,-8.9e-06,0.0,0 STARLINK-4273,1 53181U 22083BB  24045.88194331 -.00000890  00000-0 -37849-4 0  9999,2 53181  53.2152 267.8912 0001351 102.2508 257.8636 15.08851196 88110,6917.846,95.437,540.646,538.777,0.0
53181.0,STARLINK-4273,PAYLOAD,2024-02-15 08:17:41,15.08847916,0.0001336,53.2148,265.8092,102.5442,257.57,-5.3162e-05,-1.134e-05,0.0,0 STARLINK-4273,1 53181U 22083BB  24046.34562359 -.00001134  00000-0 -53162-4 0  9998,2 53181  53.2148 265.8092 0001336 102.5442 257.5700 15.08847916 88186,6917.856,95.437,540.645,538.797,0.0
53181.0,STARLINK-4273,PAYLOAD,2024-02-15 21:00:47,15.0884151,0.0001331,53.2149,263.4321,91.4332,268.6813,0.00013395,1.845e-05,0.0,0 STARLINK-4273,1 53181U 22083BB  24046.87554945  .00001845  00000-0  13395-3 0  9998,2 53181  53.2149 263.4321 0001331  91.4332 268.6813 15.08841510 88266,6917.876,95.437,540.662,538.82,0.0
53181.0,STARLINK-4273,PAYLOAD,2024-02-16 00:11:33,15.08844911,0.0001364,53.2149,262.837,91.366,268.7488,0.00014417,2.008e-05,0.0,0 STARLINK-4273,1 53181U 22083BB  24047.00802768  .00002008  00000-0  14417-3 0  9991,2 53181  53.2149 262.8370 0001364  91.3660 268.7488 15.08844911 88922,6917.865,95.437,540.674,538.787,0.0
53181.0,STARLINK-4273,PAYLOAD,2024-02-16 19:16:11,15.08830439,0.0001342,53.2153,259.267,96.4493,263.6652,0.00012175,1.65e-05,0.0,0 STARLINK-4273,1 53181U 22083BB  24047.80291646  .00001650  00000-0  12175-3 0  9997,2 53181  53.2153 259.2670 0001342  96.4493 263.6652 15.08830439 89047,6917.91,95.438,540.703,538.846,0.0
53181.0,STARLINK-4273,PAYLOAD,2024-02-17 06:23:53,15.08838347,0.0001382,53.2162,257.1847,94.4431,265.6719,7.0772e-05,8.39e-06,0.0,0 STARLINK-4273,1 53181U 22083BB  24048.26659290  .00000839  00000-0  70772-4 0  9997,2 53181  53.2162 257.1847 0001382  94.4431 265.6719 15.08838347 89114,6917.885,95.438,540.706,538.794,0.0
53181.0,STARLINK-4273,PAYLOAD,2024-02-17 12:45:26,15.08836574,0.0001359,53.2159,255.996,97.2619,262.8527,6.7955e-05,7.94e-06,0.0,0 STARLINK-4273,1 53181U 22083BB  24048.53155454  .00000794  00000-0  67955-4 0  9999,2 53181  53.2159 255.9960 0001359  97.2619 262.8527 15.08836574 88514,6917.891,95.438,540.696,538.816,0.0
53181.0,STARLINK-4273,PAYLOAD,2024-02-17 20:42:21,15.0883961,0.0001265,53.2158,254.51,92.3872,267.7265,9.0536e-05,1.153e-05,0.0,0 STARLINK-4273,1 53181U 22083BB  24048.86275318  .00001153  00000-0  90536-4 0  9998,2 53181  53.2158 254.5100 0001265  92.3872 267.7265 15.08839610 88569,6917.882,95.438,540.622,538.871,0.0
53181.0,STARLINK-4273,PAYLOAD,2024-02-18 12:36:13,15.08836679,0.0001247,53.2154,251.5364,92.859,267.2545,0.00011773,1.586e-05,0.0,0 STARLINK-4273,1 53181U 22083BB  24049.52515593  .00001586  00000-0  11773-3 0  9999,2 53181  53.2154 251.5364 0001247  92.8590 267.2545 15.08836679 88665,6917.891,95.438,540.618,538.893,0.0
53181.0,STARLINK-4273,PAYLOAD,2024-02-18 20:33:08,15.08840513,0.000123,53.2154,250.0496,93.6468,266.4665,9.3777e-05,1.205e-05,0.0,0 STARLINK-4273,1 53181U 22083BB  24049.85635408  .00001205  00000-0  93777-4 0  9996,2 53181  53.2154 250.0496 0001230  93.6468 266.4665 15.08840513 88712,6917.879,95.438,540.595,538.893,0.0
53181.0,STARLINK-4273,PAYLOAD,2024-02-19 06:05:27,15.08841978,0.0001271,53.2158,248.2652,90.0895,270.0243,9.1719e-05,1.172e-05,0.0,0 STARLINK-4273,1 53181U 22083BB  24050.25379347  .00001172  00000-0  91719-4 0  9996,2 53181  53.2158 248.2652 0001271  90.0895 270.0243 15.08841978 88774,6917.874,95.437,540.619,538.86,0.0
53181.0,STARLINK-4273,PAYLOAD,2024-02-19 18:48:33,15.08835629,0.0001335,53.2165,245.8868,90.6018,269.5127,3.7167e-05,3.04e-06,0.0,0 STARLINK-4273,1 53181U 22083BB  24050.78372012  .00000304  00000-0  37167-4 0  9999,2 53181  53.2165 245.8868 0001335  90.6018 269.5127 15.08835629 89498,6917.894,95.438,540.682,538.835,0.0
53181.0,STARLINK-4273,PAYLOAD,2024-02-19 21:59:19,15.08835871,0.0001312,53.2162,245.2916,86.978,273.1362,2.8761e-05,1.7e-06,0.0,0 STARLINK-4273,1 53181U 22083BB  24050.91619985  .00000170  00000-0  28761-4 0  9998,2 53181  53.2162 245.2916 0001312  86.9780 273.1362 15.08835871 88874,6917.893,95.438,540.666,538.85,0.0
53181.0,STARLINK-4273,PAYLOAD,2024-02-20 05:56:15,15.08833486,0.0001315,53.2162,243.8046,86.0216,274.0927,1.3008e-05,-8.1e-07,0.0,0 STARLINK-4273,1 53181U 22083BB  24051.24740308 -.00000081  00000-0  13008-4 0  9999,2 53181  53.2162 243.8046 0001315  86.0216 274.0927 15.08833486 88923,6917.9,95.438,540.675,538.856,0.0
53181.0,STARLINK-4273,PAYLOAD,2024-02-20 21:50:06,15.08845088,0.0001258,53.2158,240.8298,85.8788,274.2348,6.8705e-05,8.06e-06,0.0,0 STARLINK-4273,1 53181U 22083BB  24051.90979457  .00000806  00000-0  68705-4 0  9999,2 53181  53.2158 240.8298 0001258  85.8788 274.2348 15.08845088 89023,6917.865,95.437,540.6,538.86,0.0
53181.0,STARLINK-4273,PAYLOAD,2024-02-21 05:47:02,15.08842087,0.0001272,53.2158,239.343,85.4797,274.634,4.6894e-05,4.59e-06,0.0,0 STARLINK-4273,1 53181U 22083BB  24052.24099671  .00000459  00000-0  46894-4 0  9997,2 53181  53.2158 239.3430 0001272  85.4797 274.6340 15.08842087 89073,6917.874,95.437,540.619,538.859,0.0
